line1,line2,validFromUtcTime
1 00000U 00000E   26001.00000000  .00000000  00000-0  27772-4 0    01,2 00000  88.8547  90.3331 0009793 269.9985 180.0033 13.55230806    05,2026-01-01T00:00:00Z
1 00000U 00000E   26002.00000000  .00000000  00000-0  27772-4 0    02,2 00000  88.8547  90.2166 0009793 267.0892  18.8327 13.55230844    02,2026-01-02T00:00:00Z
